[
    {
        "Altitude(m)": 622205.870842088,
        "Argument of Periapsis(deg)": 0.0,
        "Eccentricity": 0.0,
        "Inclination(deg)": 60.0,
        "Latitude(deg)": -52.162444664835405,
        "Longitude(deg)": -167.29972370568828,
        "Mean Anomaly(deg)": 245.45449999999994,
        "RAAN(deg)": 65.0,
        "Satellite Name": "Test1 301",
        "Satellite Number": 301,
        "Semi-Major Axis(m)": 6980739.136638005,
        "Time(s)": 0
    },
    {
        "Altitude(m)": 622344.7778262359,
        "Argument of Periapsis(deg)": 0.00010418945913296404,
        "Eccentricity": 0.0,
        "Inclination(deg)": 60.0,
        "Latitude(deg)": -52.52002551472596,
        "Longitude(deg)": -166.518512699834,
        "Mean Anomaly(deg)": 246.07460614546184,
        "RAAN(deg)": 64.99957995086025,
        "Satellite Name": "Test1 301",
        "Satellite Number": 301,
        "Semi-Major Axis(m)": 6980739.136638005,
        "Time(s)": 10
    }
]